{
  "norad_id": 65412,
  "name": "STARLINK-34992",
  "history": [
    {
      "epoch": "2026-04-15T21:26:59.040096Z",
      "apogee_km": 476.421574041894,
      "perigee_km": 473.9913784452174,
      "latitude_deg": -5.663171470994253e-05,
      "longitude_deg": -106.48780718229524,
      "height_km": 476.31851509333126,
      "semi_major_axis_km": 6853.343476243555,
      "eccentricity": 0.0001773,
      "inclination_deg": 53.1568,
      "raan_deg": 59.3075,
      "arg_perigee_deg": 100.1901,
      "mean_anomaly_deg": 259.9299,
      "mean_motion_rev_day": 15.30202878
    },
    {
      "epoch": "2026-04-16T06:51:18.119232Z",
      "apogee_km": 476.1348116146837,
      "perigee_km": 474.2611098364205,
      "latitude_deg": 5.9585091600344246e-05,
      "longitude_deg": 110.22792182682453,
      "height_km": 476.2082288111959,
      "semi_major_axis_km": 6853.334960725551,
      "eccentricity": 0.0001367,
      "inclination_deg": 53.1594,
      "raan_deg": 57.4889,
      "arg_perigee_deg": 96.8899,
      "mean_anomaly_deg": 263.2258,
      "mean_motion_rev_day": 15.3020573
    },
    {
      "epoch": "2026-04-17T06:22:05.932416Z",
      "apogee_km": 475.98912324315097,
      "perigee_km": 474.39723170952675,
      "latitude_deg": 1.5284497321859162e-07,
      "longitude_deg": 112.01210144842268,
      "height_km": 475.88071644351,
      "semi_major_axis_km": 6853.330177476339,
      "eccentricity": 0.00011614,
      "inclination_deg": 53.1591,
      "raan_deg": 52.938,
      "arg_perigee_deg": 74.6536,
      "mean_anomaly_deg": 285.4593,
      "mean_motion_rev_day": 15.30207332
    },
    {
      "epoch": "2026-04-18T02:44:47.615136Z",
      "apogee_km": 475.9278211329247,
      "perigee_km": 474.4829994859838,
      "latitude_deg": 3.941911545308413e-05,
      "longitude_deg": 161.5569487606124,
      "height_km": 476.1079412793951,
      "semi_major_axis_km": 6853.342410309454,
      "eccentricity": 0.00010541,
      "inclination_deg": 53.1599,
      "raan_deg": 48.9934,
      "arg_perigee_deg": 90.3314,
      "mean_anomaly_deg": 269.7808,
      "mean_motion_rev_day": 15.30203235
    },
    {
      "epoch": "2026-04-19T02:15:35.208000Z",
      "apogee_km": 476.1021850070874,
      "perigee_km": 474.2014938803568,
      "latitude_deg": -5.217762537034695e-05,
      "longitude_deg": 163.34392315066384,
      "height_km": 476.0538238323761,
      "semi_major_axis_km": 6853.288839443722,
      "eccentricity": 0.00013867,
      "inclination_deg": 53.1611,
      "raan_deg": 44.4444,
      "arg_perigee_deg": 90.2373,
      "mean_anomaly_deg": 269.8786,
      "mean_motion_rev_day": 15.30221177
    },
    {
      "epoch": "2026-04-20T12:44:46.093920Z",
      "apogee_km": 476.2574378126601,
      "perigee_km": 474.19745352758036,
      "latitude_deg": 6.259753410555378e-05,
      "longitude_deg": -2.0470560189234224,
      "height_km": 476.22217691726,
      "semi_major_axis_km": 6853.3644456701195,
      "eccentricity": 0.00015029,
      "inclination_deg": 53.1616,
      "raan_deg": 37.765,
      "arg_perigee_deg": 95.3933,
      "mean_anomaly_deg": 264.724,
      "mean_motion_rev_day": 15.30195855
    },
    {
      "epoch": "2026-04-21T12:15:33.939072Z",
      "apogee_km": 476.61298568929396,
      "perigee_km": 473.77940654602753,
      "latitude_deg": -5.385864126518731e-07,
      "longitude_deg": -0.2622167500272788,
      "height_km": 476.19886717990516,
      "semi_major_axis_km": 6853.333196117661,
      "eccentricity": 0.00020673,
      "inclination_deg": 53.1614,
      "raan_deg": 33.2149,
      "arg_perigee_deg": 94.2734,
      "mean_anomaly_deg": 265.8503,
      "mean_motion_rev_day": 15.30206321
    },
    {
      "epoch": "2026-04-22T11:46:21.776448Z",
      "apogee_km": 476.21912468261235,
      "perigee_km": 474.25494768384215,
      "latitude_deg": 1.0265923665559315e-05,
      "longitude_deg": 1.5211099948012377,
      "height_km": 476.40135508494546,
      "semi_major_axis_km": 6853.374036183227,
      "eccentricity": 0.0001433,
      "inclination_deg": 53.1618,
      "raan_deg": 28.6632,
      "arg_perigee_deg": 105.7277,
      "mean_anomaly_deg": 254.3882,
      "mean_motion_rev_day": 15.30192643
    },
    {
      "epoch": "2026-04-23T11:17:09.712320Z",
      "apogee_km": 476.0768007187453,
      "perigee_km": 474.3915567458953,
      "latitude_deg": 4.4302270333815755e-05,
      "longitude_deg": 3.305642923031692,
      "height_km": 476.17658859947,
      "semi_major_axis_km": 6853.37117873232,
      "eccentricity": 0.00012295,
      "inclination_deg": 53.1618,
      "raan_deg": 24.1131,
      "arg_perigee_deg": 92.9996,
      "mean_anomaly_deg": 267.1146,
      "mean_motion_rev_day": 15.301936
    },
    {
      "epoch": "2026-04-24T17:04:10.322112Z",
      "apogee_km": 476.2591555205563,
      "perigee_km": 474.12914019980144,
      "latitude_deg": -2.7290809186073715e-05,
      "longitude_deg": -90.43131779283193,
      "height_km": 476.2275362603123,
      "semi_major_axis_km": 6853.331147860179,
      "eccentricity": 0.0001554,
      "inclination_deg": 53.1571,
      "raan_deg": 18.3519,
      "arg_perigee_deg": 97.3365,
      "mean_anomaly_deg": 262.7812,
      "mean_motion_rev_day": 15.30207007
    },
    {
      "epoch": "2026-04-25T16:34:57.925344Z",
      "apogee_km": 476.30039007647974,
      "perigee_km": 474.0566145810162,
      "latitude_deg": 2.6619642570987644e-05,
      "longitude_deg": -88.6466784852142,
      "height_km": 476.6228779663721,
      "semi_major_axis_km": 6853.315502328747,
      "eccentricity": 0.0001637,
      "inclination_deg": 53.159,
      "raan_deg": 13.8005,
      "arg_perigee_deg": 119.1599,
      "mean_anomaly_deg": 240.9566,
      "mean_motion_rev_day": 15.30212247
    },
    {
      "epoch": "2026-04-26T22:21:59.112288Z",
      "apogee_km": 476.043756924988,
      "perigee_km": 474.44787820208967,
      "latitude_deg": -3.495154880161225e-05,
      "longitude_deg": 177.61235896130378,
      "height_km": 476.22530148196074,
      "semi_major_axis_km": 6853.382817563538,
      "eccentricity": 0.00011643,
      "inclination_deg": 53.1581,
      "raan_deg": 8.0377,
      "arg_perigee_deg": 95.8595,
      "mean_anomaly_deg": 264.2538,
      "mean_motion_rev_day": 15.30189702
    },
    {
      "epoch": "2026-04-27T20:18:44.006688Z",
      "apogee_km": 475.82227225310726,
      "perigee_km": 474.59278224491845,
      "latitude_deg": -5.019047907189511e-05,
      "longitude_deg": -156.72439380434636,
      "height_km": 476.0274110181141,
      "semi_major_axis_km": 6853.344527249013,
      "eccentricity": 8.97e-05,
      "inclination_deg": 53.1581,
      "raan_deg": 3.7893,
      "arg_perigee_deg": 82.6628,
      "mean_anomaly_deg": 277.4474,
      "mean_motion_rev_day": 15.30202526
    },
    {
      "epoch": "2026-04-28T19:49:31.901952Z",
      "apogee_km": 475.76561171119283,
      "perigee_km": 474.6594810944025,
      "latitude_deg": -6.057423010244771e-05,
      "longitude_deg": -154.94062152286335,
      "height_km": 475.79733149287114,
      "semi_major_axis_km": 6853.349546402797,
      "eccentricity": 8.07e-05,
      "inclination_deg": 53.1573,
      "raan_deg": 359.2383,
      "arg_perigee_deg": 55.4296,
      "mean_anomaly_deg": 304.678,
      "mean_motion_rev_day": 15.30200845
    },
    {
      "epoch": "2026-04-29T20:54:22.958784Z",
      "apogee_km": 475.7348472818021,
      "perigee_km": 474.654762189376,
      "latitude_deg": -6.076302489781754e-05,
      "longitude_deg": -177.0390919905903,
      "height_km": 475.95086353744273,
      "semi_major_axis_km": 6853.331804735589,
      "eccentricity": 7.88e-05,
      "inclination_deg": 53.1575,
      "raan_deg": 354.3826,
      "arg_perigee_deg": 74.7066,
      "mean_anomaly_deg": 285.4021,
      "mean_motion_rev_day": 15.30206787
    },
    {
      "epoch": "2026-04-30T15:43:01.291584Z",
      "apogee_km": 475.7638371779467,
      "perigee_km": 474.5529969436593,
      "latitude_deg": 2.94359060109771e-05,
      "longitude_deg": -103.61367091919672,
      "height_km": 475.92959261473936,
      "semi_major_axis_km": 6853.295417060803,
      "eccentricity": 8.834e-05,
      "inclination_deg": 53.1575,
      "raan_deg": 350.7402,
      "arg_perigee_deg": 77.8734,
      "mean_anomaly_deg": 282.2366,
      "mean_motion_rev_day": 15.30218974
    },
    {
      "epoch": "2026-05-02T00:38:08.251296Z",
      "apogee_km": 475.8382277981864,
      "perigee_km": 474.56487749510416,
      "latitude_deg": 3.327183845937095e-05,
      "longitude_deg": 114.88861271362018,
      "height_km": 476.03463706974605,
      "semi_major_axis_km": 6853.3385526466445,
      "eccentricity": 9.29e-05,
      "inclination_deg": 53.1591,
      "raan_deg": 344.3734,
      "arg_perigee_deg": 84.1079,
      "mean_anomaly_deg": 276.0028,
      "mean_motion_rev_day": 15.30204527
    },
    {
      "epoch": "2026-05-03T20:00:01.999008Z",
      "apogee_km": 471.67458443633495,
      "perigee_km": 469.9938469000099,
      "latitude_deg": -46.4299027797773,
      "longitude_deg": 45.78540043895452,
      "height_km": 487.41007483743005,
      "semi_major_axis_km": 6848.971215668173,
      "eccentricity": 0.0001227,
      "inclination_deg": 53.1599,
      "raan_deg": 335.9706,
      "arg_perigee_deg": 89.2715,
      "mean_anomaly_deg": 155.2117,
      "mean_motion_rev_day": 15.31668393
    },
    {
      "epoch": "2026-05-04T20:00:01.999008Z",
      "apogee_km": 471.5041913071909,
      "perigee_km": 469.8919755285542,
      "latitude_deg": 1.2251009977573772,
      "longitude_deg": 169.50217773602603,
      "height_km": 471.3799070594737,
      "semi_major_axis_km": 6848.835083417872,
      "eccentricity": 0.0001177,
      "inclination_deg": 53.16,
      "raan_deg": 331.3146,
      "arg_perigee_deg": 86.8023,
      "mean_anomaly_deg": 274.8327,
      "mean_motion_rev_day": 15.3171406
    }
  ]
}